NORAD_CAT_ID,OBJECT_NAME,OBJECT_TYPE,EPOCH,MEAN_MOTION,ECCENTRICITY,INCLINATION,RA_OF_ASC_NODE,ARG_OF_PERICENTER,MEAN_ANOMALY,BSTAR,MEAN_MOTION_DOT,MEAN_MOTION_DDOT,TLE_LINE0,TLE_LINE1,TLE_LINE2,SEMIMAJOR_AXIS,PERIOD,APOGEE,PERIGEE,DECAYED
50170.0,STARLINK-3245,PAYLOAD,2023-08-14 01:56:30,15.08892763,9.71e-05,53.2177,142.7006,110.2473,249.8623,-0.00070993,-0.00011585,0.0,0 STARLINK-3245,1 50170U 21125Q   23226.08090417 -.00011585  00000-0 -70993-3 0  9991,2 50170  53.2177 142.7006 0000971 110.2473 249.8623 15.08892763 94416,6917.719,95.434,540.256,538.912,0.0
50170.0,STARLINK-3245,PAYLOAD,2023-08-15 01:47:17,15.08846638,0.0001194,53.2176,138.2413,87.1499,272.963,9.1129e-05,1.163e-05,0.0,0 STARLINK-3245,1 50170U 21125Q   23227.07451190  .00001163  00000-0  91129-4 0  9994,2 50170  53.2176 138.2413 0001194  87.1499 272.9630 15.08846638 94566,6917.86,95.437,540.551,538.899,0.0
50170.0,STARLINK-3245,PAYLOAD,2023-08-15 17:41:09,15.08837141,0.0001561,53.2182,135.2718,56.7977,303.3165,0.00011556,1.551e-05,0.0,0 STARLINK-3245,1 50170U 21125Q   23227.73691897  .00001551  00000-0  11556-3 0  9993,2 50170  53.2182 135.2718 0001561  56.7977 303.3165 15.08837141 94661,6917.889,95.438,540.834,538.674,0.0
50170.0,STARLINK-3245,PAYLOAD,2023-08-16 17:31:57,15.08836647,0.0001463,53.2169,130.8077,76.2204,283.8951,-7.9306e-05,-1.55e-05,0.0,0 STARLINK-3245,1 50170U 21125Q   23228.73052676 -.00001550  00000-0 -79306-4 0  9999,2 50170  53.2169 130.8077 0001463  76.2204 283.8951 15.08836647 94818,6917.891,95.438,540.768,538.744,0.0
50170.0,STARLINK-3245,PAYLOAD,2023-08-17 03:04:15,15.08842382,0.0001276,53.2175,129.0225,85.6922,274.4216,-1.902e-05,-5.91e-06,0.0,0 STARLINK-3245,1 50170U 21125Q   23229.12796124 -.00000591  00000-0 -19020-4 0  9997,2 50170  53.2175 129.0225 0001276  85.6922 274.4216 15.08842382 94872,6917.873,95.437,540.621,538.855,0.0
50170.0,STARLINK-3245,PAYLOAD,2023-08-18 02:55:01,15.08859624,0.0001277,53.2168,124.5621,88.6248,271.4891,0.00038981,5.925e-05,0.0,0 STARLINK-3245,1 50170U 21125Q   23230.12155064  .00005925  00000-0  38981-3 0  9991,2 50170  53.2168 124.5621 0001277  88.6248 271.4891 15.08859624 95020,6917.82,95.436,540.569,538.802,0.0
50170.0,STARLINK-3245,PAYLOAD,2023-08-18 17:13:30,15.08841928,0.000123,53.2172,121.8868,87.7544,272.3589,0.0001402,1.944e-05,0.0,0 STARLINK-3245,1 50170U 21125Q   23230.71771967  .00001944  00000-0  14020-3 0  9997,2 50170  53.2172 121.8868 0001230  87.7544 272.3589 15.08841928 95118,6917.874,95.437,540.59,538.889,0.0
50170.0,STARLINK-3245,PAYLOAD,2023-08-19 02:45:49,15.08851044,0.0001265,53.217,120.1017,96.6817,263.4319,0.00018837,2.712e-05,0.0,0 STARLINK-3245,1 50170U 21125Q   23231.11515328  .00002712  00000-0  18837-3 0  9993,2 50170  53.2170 120.1017 0001265  96.6817 263.4319 15.08851044 95172,6917.847,95.437,540.587,538.837,0.0
50170.0,STARLINK-3245,PAYLOAD,2023-08-19 17:04:17,15.08837842,0.00013,53.2167,117.4247,96.8453,263.2687,0.00012364,1.68e-05,0.0,0 STARLINK-3245,1 50170U 21125Q   23231.71131740  .00001680  00000-0  12364-3 0  9993,2 50170  53.2167 117.4247 0001300  96.8453 263.2687 15.08837842 95266,6917.887,95.438,540.651,538.853,0.0
50170.0,STARLINK-3245,PAYLOAD,2023-08-21 00:52:00,15.08846659,0.0001223,53.2165,111.4782,98.1764,261.9367,0.00027844,4.147e-05,0.0,0 STARLINK-3245,1 50170U 21125Q   23233.03611836  .00004147  00000-0  27844-3 0  9999,2 50170  53.2165 111.4782 0001223  98.1764 261.9367 15.08846659 95464,6917.86,95.437,540.571,538.879,0.0
50170.0,STARLINK-3245,PAYLOAD,2023-08-21 19:56:38,15.08836493,2.65e-05,53.2166,107.9111,150.3223,209.7784,5.9176e-05,6.54e-06,0.0,0 STARLINK-3245,1 50170U 21125Q   23233.83100093  .00000654  00000-0  59176-4 0  9998,2 50170  53.2166 107.9111 0000265 150.3223 209.7784 15.08836493 95588,6917.891,95.438,539.939,539.573,0.0
50170.0,STARLINK-3245,PAYLOAD,2023-08-22 00:42:47,15.08849083,0.0001194,53.2162,107.0183,98.8843,261.2284,0.00027575,4.104e-05,0.0,0 STARLINK-3245,1 50170U 21125Q   23234.02971714  .00004104  00000-0  27575-3 0  9997,2 50170  53.2162 107.0183 0001194  98.8843 261.2284 15.08849083 95611,6917.853,95.437,540.544,538.892,0.0
50170.0,STARLINK-3245,PAYLOAD,2023-08-23 00:33:34,15.08849454,0.000124,53.2162,102.5571,88.8933,271.2201,0.00023936,3.525e-05,0.0,0 STARLINK-3245,1 50170U 21125Q   23235.02331786  .00003525  00000-0  23936-3 0  9990,2 50170  53.2162 102.5571 0001240  88.8933 271.2201 15.08849454 95761,6917.851,95.437,540.574,538.859,0.0
50170.0,STARLINK-3245,PAYLOAD,2023-08-24 00:24:22,15.08839893,0.0001062,53.2171,98.0941,100.3839,259.7273,0.00028372,4.23e-05,0.0,0 STARLINK-3245,1 50170U 21125Q   23236.01692416  .00004230  00000-0  28372-3 0  9993,2 50170  53.2171  98.0941 0001062 100.3839 259.7273 15.08839893 96394,6917.881,95.438,540.48,539.011,0.0
50170.0,STARLINK-3245,PAYLOAD,2023-08-25 20:55:09,15.08848514,0.0001277,53.2173,89.7678,94.2966,265.8172,0.00024107,3.552e-05,0.0,0 STARLINK-3245,1 50170U 21125Q   23237.87164117  .00003552  00000-0  24107-3 0  9998,2 50170  53.2173  89.7678 0001277  94.2966 265.8172 15.08848514 96677,6917.854,95.437,540.603,538.836,0.0
50170.0,STARLINK-3245,PAYLOAD,2023-08-26 00:05:56,15.08847937,0.0001308,53.2173,89.175,87.808,272.3061,0.0001982,2.869e-05,0.0,0 STARLINK-3245,1 50170U 21125Q   23238.00412094  .00002869  00000-0  19820-3 0  9990,2 50170  53.2173  89.1750 0001308  87.8080 272.3061 15.08847937 96210,6917.856,95.437,540.626,538.816,0.0
50170.0,STARLINK-3245,PAYLOAD,2023-08-26 17:35:10,15.08838051,0.0001401,53.2175,85.9038,87.2502,272.8651,8.2266e-05,1.022e-05,0.0,0 STARLINK-3245,1 50170U 21125Q   23238.73276494  .00001022  00000-0  82266-4 0  9997,2 50170  53.2175  85.9038 0001401  87.2502 272.8651 15.08838051 96321,6917.886,95.438,540.721,538.782,0.0
50170.0,STARLINK-3245,PAYLOAD,2023-08-26 20:45:57,15.088387,0.0001424,53.2175,85.309,88.3125,271.8031,7.8277e-05,9.58e-06,0.0,0 STARLINK-3245,1 50170U 21125Q   23238.86524452  .00000958  00000-0  78277-4 0  9995,2 50170  53.2175  85.3090 0001424  88.3125 271.8031 15.08838700 96828,6917.884,95.438,540.734,538.764,0.0
50170.0,STARLINK-3245,PAYLOAD,2023-08-26 23:56:43,15.08839844,0.0001424,53.2176,84.714,89.5931,270.5224,8.1132e-05,1.004e-05,0.0,0 STARLINK-3245,1 50170U 21125Q   23238.99772385  .00001004  00000-0  81132-4 0  9996,2 50170  53.2176  84.7140 0001424  89.5931 270.5224 15.08839844 96848,6917.881,95.438,540.731,538.761,0.0
50170.0,STARLINK-3245,PAYLOAD,2023-08-27 20:36:44,15.08838124,0.0001333,53.2182,80.8489,92.2917,267.8228,3.4833e-05,2.66e-06,0.0,0 STARLINK-3245,1 50170U 21125Q   23239.85884831  .00000266  00000-0  34833-4 0  9997,2 50170  53.2182  80.8489 0001333  92.2917 267.8228 15.08838124 96979,6917.886,95.438,540.673,538.829,0.0
50170.0,STARLINK-3245,PAYLOAD,2023-08-27 23:47:30,15.08839155,0.0001378,53.2182,80.254,97.6777,262.4372,6.1031e-05,6.83e-06,0.0,0 STARLINK-3245,1 50170U 21125Q   23239.99132708  .00000683  00000-0  61031-4 0  9994,2 50170  53.2182  80.2540 0001378  97.6777 262.4372 15.08839155 96519,6917.883,95.438,540.701,538.795,0.0
50170.0,STARLINK-3245,PAYLOAD,2023-08-28 06:09:03,15.08832412,0.0001364,53.2183,79.0646,97.6141,262.5006,8.7682e-05,1.108e-05,0.0,0 STARLINK-3245,1 50170U 21125Q   23240.25629187  .00001108  00000-0  87682-4 0  9990,2 50170  53.2183  79.0646 0001364  97.6141 262.5006 15.08832412 96551,6917.904,95.438,540.712,538.825,0.0
50170.0,STARLINK-3245,PAYLOAD,2023-08-28 20:27:31,15.08840239,0.0001328,53.2181,76.3897,99.7482,260.366,0.00010144,1.327e-05,0.0,0 STARLINK-3245,1 50170U 21125Q   23240.85244855  .00001327  00000-0  10144-3 0  9992,2 50170  53.2181  76.3897 0001328  99.7482 260.3660 15.08840239 97120,6917.88,95.438,540.663,538.826,0.0
50170.0,STARLINK-3245,PAYLOAD,2023-08-28 23:38:17,15.08843345,0.0001364,53.2184,75.7948,93.2748,266.8401,0.00011452,1.535e-05,0.0,0 STARLINK-3245,1 50170U 21125Q   23240.98492682  .00001535  00000-0  11452-3 0  9993,2 50170  53.2184  75.7948 0001364  93.2748 266.8401 15.08843345 96660,6917.87,95.437,540.679,538.792,0.0
50170.0,STARLINK-3245,PAYLOAD,2023-08-29 17:07:32,15.08837379,0.0001292,53.2181,72.5228,95.1575,264.9565,9.222e-05,1.18e-05,0.0,0 STARLINK-3245,1 50170U 21125Q   23241.71357297  .00001180  00000-0  92220-4 0  9996,2 50170  53.2181  72.5228 0001292  95.1575 264.9565 15.08837379 96774,6917.888,95.438,540.647,538.86,0.0
50170.0,STARLINK-3245,PAYLOAD,2023-08-29 20:18:18,15.08841288,0.0001303,53.2182,71.9285,92.4823,267.6319,0.00012548,1.71e-05,0.0,0 STARLINK-3245,1 50170U 21125Q   23241.84605019  .00001710  00000-0  12548-3 0  9991,2 50170  53.2182  71.9285 0001303  92.4823 267.6319 15.08841288 97277,6917.876,95.437,540.643,538.84,0.0
50170.0,STARLINK-3245,PAYLOAD,2023-08-30 18:33:42,15.08842217,0.0001349,53.2183,67.7675,68.8825,291.2311,0.00017821,2.55e-05,0.0,0 STARLINK-3245,1 50170U 21125Q   23242.77340976  .00002550  00000-0  17821-3 0  9994,2 50170  53.2183  67.7675 0001349  68.8825 291.2311 15.08842217 97417,6917.874,95.437,540.672,538.805,0.0
50170.0,STARLINK-3245,PAYLOAD,2023-08-30 23:19:51,15.08850909,0.0001339,53.2182,66.8741,84.4623,275.6522,0.00013962,1.935e-05,0.0,0 STARLINK-3245,1 50170U 21125Q   23242.97212371  .00001935  00000-0  13962-3 0  9991,2 50170  53.2182  66.8741 0001339  84.4623 275.6522 15.08850909 96965,6917.847,95.437,540.638,538.786,0.0
50170.0,STARLINK-3245,PAYLOAD,2023-08-31 12:02:57,15.0884079,0.0001658,53.2183,64.498,76.3219,283.7957,8.7649e-05,1.107e-05,0.0,0 STARLINK-3245,1 50170U 21125Q   23243.50205246  .00001107  00000-0  87649-4 0  9999,2 50170  53.2183  64.4980 0001658  76.3219 283.7957 15.08840790 97049,6917.878,95.438,540.89,538.596,0.0
50170.0,STARLINK-3245,PAYLOAD,2023-09-01 05:32:11,15.08840037,0.0001437,53.2177,61.2258,78.775,281.3403,3.1813e-05,2.18e-06,0.0,0 STARLINK-3245,1 50170U 21125Q   23244.23069321  .00000218  00000-0  31813-4 0  9996,2 50170  53.2177  61.2258 0001437  78.7750 281.3403 15.08840037 97635,6917.88,95.438,540.739,538.751,0.0
